<?xml version="1.0" encoding="UTF-8"?>
<gpx version="1.1" creator="Krajoskop sample" xmlns="http://www.topografix.com/GPX/1/1">
  <trk>
    <name>Polica od Zawoi</name>
    <trkseg>
      <trkpt lat="49.6055" lon="19.6118"><ele>735.2</ele><time>2026-09-19T05:12:00Z</time></trkpt>
      <trkpt lat="49.6092" lon="19.6164"><ele>812.7</ele><time>2026-09-19T05:26:30Z</time></trkpt>
      <trkpt lat="49.6131" lon="19.6208"><ele>908.1</ele><time>2026-09-19T05:44:10Z</time></trkpt>
      <trkpt lat="49.6178" lon="19.6255"><ele>1043.6</ele><time>2026-09-19T06:08:45Z</time></trkpt>
      <trkpt lat="49.6216" lon="19.6297"><ele>1186.9</ele><time>2026-09-19T06:33:20Z</time></trkpt>
      <trkpt lat="49.6251" lon="19.6334"><ele>1310.4</ele><time>2026-09-19T06:57:05Z</time></trkpt>
    </trkseg>
  </trk>
</gpx>
